STARLINK-1876
1 47161U 20088AR  26090.83335647 -.00011152  00000+0 -91599-4 0  9991
2 47161  53.0497 162.9145 0005342  34.1676 253.0231 15.68531998  5970
